{"type": "FeatureCollection", "features": [ {"type": "Feature", "properties": {"norad_id": 29878, "name": "FENGYUN 1C DEB", "group": "fengyun-1c-debris", "lat": -81.8918548577367, "lon": -66.97191325865266, "alt_km": 548.2760849148135, "timestamp": "2025-12-26T15:29:39.711341+00:00", "meta": {"OBJECT_NAME": "FENGYUN 1C DEB", "OBJECT_ID": "1999-025FY", "EPOCH": "2025-12-25T22:27:05.286240", "MEAN_MOTION": 15.12876252, "ECCENTRICITY": 0.0023889, "INCLINATION": 96.9478, "RA_OF_ASC_NODE": 171.2462, "ARG_OF_PERICENTER": 120.1549, "MEAN_ANOMALY": 240.2055, "EPHEMERIS_TYPE": 0, "CLASSIFICATION_TYPE": "U", "NORAD_CAT_ID": 29878, "ELEMENT_SET_NO": 999, "REV_AT_EPOCH": 98847, "BSTAR": 0.0067214, "MEAN_MOTION_DOT": 0.00120844, "MEAN_MOTION_DDOT": 0}, "tle": {"line1": "1 29878U 99025FY  25359.93547785  .00120844  00000+0  67214-2 0  9991", "line2": "2 29878  96.9478 171.2462 0023889 120.1549 240.2055 15.12876252988477"}}, "geometry": {"type": "Point", "coordinates": [-66.97191325865266, -81.8918548577367]}}, {"type": "Feature", "properties": {"norad_id": 29880, "name": "FENGYUN 1C DEB", "group": "fengyun-1c-debris", "lat": 27.44684998994505, "lon": -86.65929819149007, "alt_km": 773.1068542410794, "timestamp": "2025-12-26T15:29:39.711351+00:00", "meta": {"OBJECT_NAME": "FENGYUN 1C DEB", "OBJECT_ID": "1999-025GA", "EPOCH": "2025-12-25T17:06:31.382208", "MEAN_MOTION": 13.93958568, "ECCENTRICITY": 0.02324158, "INCLINATION": 98.1958, "RA_OF_ASC_NODE": 276.805, "ARG_OF_PERICENTER": 65.2607, "MEAN_ANOMALY": 325.9984, "EPHEMERIS_TYPE": 0, "CLASSIFICATION_TYPE": "U", "NORAD_CAT_ID": 29880, "ELEMENT_SET_NO": 999, "REV_AT_EPOCH": 95743, "BSTAR": 0.001394527, "MEAN_MOTION_DOT": 2.27e-05, "MEAN_MOTION_DDOT": 0}, "tle": {"line1": "1 29880U 99025GA  25359.71286322  .00002270  00000+0  13945-2 0  9991", "line2": "2 29880  98.1958 276.8050 0232415  65.2607 325.9984 13.93958568957435"}}, "geometry": {"type": "Point", "coordinates": [-86.65929819149007, 27.44684998994505]}}, {"type": "Feature", "properties": {"norad_id": 29881, "name": "FENGYUN 1C DEB", "group": "fengyun-1c-debris", "lat": -29.237458477524306, "lon": 146.3948107435744, "alt_km": 1258.8415630526188, "timestamp": "2025-12-26T15:29:39.711361+00:00", "meta": {"OBJECT_NAME": "FENGYUN 1C DEB", "OBJECT_ID": "1999-025GB", "EPOCH": "2025-12-25T21:07:00.556320", "MEAN_MOTION": 13.59674494, "ECCENTRICITY": 0.02932712, "INCLINATION": 98.7251, "RA_OF_ASC_NODE": 330.6424, "ARG_OF_PERICENTER": 37.59, "MEAN_ANOMALY": 25.426, "EPHEMERIS_TYPE": 0, "CLASSIFICATION_TYPE": "U", "NORAD_CAT_ID": 29881, "ELEMENT_SET_NO": 999, "REV_AT_EPOCH": 93413, "BSTAR": 0.0026851097, "MEAN_MOTION_DOT": 2.61e-05, "MEAN_MOTION_DDOT": 0}, "tle": {"line1": "1 29881U 99025GB  25359.87986755  .00002610  00000+0  26851-2 0  9994", "line2": "2 29881  98.7251 330.6424 0293271  37.5900  25.4260 13.59674494934133"}}, "geometry": {"type": "Point", "coordinates": [146.3948107435744, -29.237458477524306]}}, {"type": "Feature", "properties": {"norad_id": 29884, "name": "FENGYUN 1C DEB", "group": "fengyun-1c-debris", "lat": -64.76660104324866, "lon": -165.29523757412733, "alt_km": 791.6125008083382, "timestamp": "2025-12-26T15:29:39.711371+00:00", "meta": {"OBJECT_NAME": "FENGYUN 1C DEB", "OBJECT_ID": "1999-025GE", "EPOCH": "2025-12-26T01:09:44.828928", "MEAN_MOTION": 14.40347225, "ECCENTRICITY": 0.00442799, "INCLINATION": 99.6022, "RA_OF_ASC_NODE": 35.0872, "ARG_OF_PERICENTER": 99.0324, "MEAN_ANOMALY": 292.4989, "EPHEMERIS_TYPE": 0, "CLASSIFICATION_TYPE": "U", "NORAD_CAT_ID": 29884, "ELEMENT_SET_NO": 999, "REV_AT_EPOCH": 98741, "BSTAR": 0.00058374839, "MEAN_MOTION_DOT": 1.82e-05, "MEAN_MOTION_DDOT": 0}, "tle": {"line1": "1 29884U 99025GE  25360.04843552  .00001820  00000+0  58375-3 0  9994", "line2": "2 29884  99.6022  35.0872 0044279  99.0324 292.4989 14.40347225987413"}}, "geometry": {"type": "Point", "coordinates": [-165.29523757412733, -64.76660104324866]}}, {"type": "Feature", "properties": {"norad_id": 29885, "name": "FENGYUN 1C DEB", "group": "fengyun-1c-debris", "lat": -27.787435523623625, "lon": 110.33021952369748, "alt_km": 842.2873977316749, "timestamp": "2025-12-26T15:29:39.711381+00:00", "meta": {"OBJECT_NAME": "FENGYUN 1C DEB", "OBJECT_ID": "1999-025GF", "EPOCH": "2025-12-25T20:09:36.688608", "MEAN_MOTION": 14.13588077, "ECCENTRICITY": 0.01190474, "INCLINATION": 98.357, "RA_OF_ASC_NODE": 294.0197, "ARG_OF_PERICENTER": 126.7056, "MEAN_ANOMALY": 302.6797, "EPHEMERIS_TYPE": 0, "CLASSIFICATION_TYPE": "U", "NORAD_CAT_ID": 29885, "ELEMENT_SET_NO": 999, "REV_AT_EPOCH": 97642, "BSTAR": 0.00014595725, "MEAN_MOTION_DOT": 2.55e-06, "MEAN_MOTION_DDOT": 0}, "tle": {"line1": "1 29885U 99025GF  25359.84000797  .00000255  00000+0  14596-3 0  9995", "line2": "2 29885  98.3570 294.0197 0119047 126.7056 302.6797 14.13588077976423"}}, "geometry": {"type": "Point", "coordinates": [110.33021952369748, -27.787435523623625]}}, {"type": "Feature", "properties": {"norad_id": 29887, "name": "FENGYUN 1C DEB", "group": "fengyun-1c-debris", "lat": -80.0584030432628, "lon": -158.6933241852043, "alt_km": 659.012375141665, "timestamp": "2025-12-26T15:29:39.711391+00:00", "meta": {"OBJECT_NAME": "FENGYUN 1C DEB", "OBJECT_ID": "1999-025GH", "EPOCH": "2025-12-26T04:20:17.812608", "MEAN_MOTION": 14.33768502, "ECCENTRICITY": 0.02862209, "INCLINATION": 98.7165, "RA_OF_ASC_NODE": 81.9156, "ARG_OF_PERICENTER": 319.3941, "MEAN_ANOMALY": 70.4686, "EPHEMERIS_TYPE": 0, "CLASSIFICATION_TYPE": "U", "NORAD_CAT_ID": 29887, "ELEMENT_SET_NO": 999, "REV_AT_EPOCH": 98167, "BSTAR": 0.00055611406, "MEAN_MOTION_DOT": 2.389e-05, "MEAN_MOTION_DDOT": 0}, "tle": {"line1": "1 29887U 99025GH  25360.18076172  .00002389  00000+0  55611-3 0  9999", "line2": "2 29887  98.7165  81.9156 0286220 319.3941  70.4686 14.33768502981673"}}, "geometry": {"type": "Point", "coordinates": [-158.6933241852043, -80.0584030432628]}}, {"type": "Feature", "properties": {"norad_id": 29888, "name": "FENGYUN 1C DEB", "group": "fengyun-1c-debris", "lat": 15.16203587646679, "lon": -168.6066936662369, "alt_km": 653.2359675371608, "timestamp": "2025-12-26T15:29:39.711401+00:00", "meta": {"OBJECT_NAME": "FENGYUN 1C DEB", "OBJECT_ID": "1999-025GJ", "EPOCH": "2025-12-26T01:53:47.372928", "MEAN_MOTION": 14.19885974, "ECCENTRICITY": 0.02745102, "INCLINATION": 99.1913, "RA_OF_ASC_NODE": 193.3191, "ARG_OF_PERICENTER": 347.4628, "MEAN_ANOMALY": 11.981, "EPHEMERIS_TYPE": 0, "CLASSIFICATION_TYPE": "U", "NORAD_CAT_ID": 29888, "ELEMENT_SET_NO": 999, "REV_AT_EPOCH": 97693, "BSTAR": 0.00038237705, "MEAN_MOTION_DOT": 1.128e-05, "MEAN_MOTION_DDOT": 0}, "tle": {"line1": "1 29888U 99025GJ  25360.07902052  .00001128  00000+0  38238-3 0  9999", "line2": "2 29888  99.1913 193.3191 0274510 347.4628  11.9810 14.19885974976939"}}, "geometry": {"type": "Point", "coordinates": [-168.6066936662369, 15.16203587646679]}}, {"type": "Feature", "properties": {"norad_id": 29889, "name": "FENGYUN 1C DEB", "group": "fengyun-1c-debris", "lat": 38.75249097810202, "lon": -53.42919530574644, "alt_km": 929.0196672186657, "timestamp": "2025-12-26T15:29:39.711411+00:00", "meta": {"OBJECT_NAME": "FENGYUN 1C DEB", "OBJECT_ID": "1999-025GK", "EPOCH": "2025-12-26T03:31:13.253952", "MEAN_MOTION": 14.13526569, "ECCENTRICITY": 0.01539574, "INCLINATION": 99.477, "RA_OF_ASC_NODE": 118.3374, "ARG_OF_PERICENTER": 1.7775, "MEAN_ANOMALY": 120.1552, "EPHEMERIS_TYPE": 0, "CLASSIFICATION_TYPE": "U", "NORAD_CAT_ID": 29889, "ELEMENT_SET_NO": 999, "REV_AT_EPOCH": 97508, "BSTAR": 0.00026919474, "MEAN_MOTION_DOT": 5.18e-06, "MEAN_MOTION_DDOT": 0}, "tle": {"line1": "1 29889U 99025GK  25360.14668118  .00000518  00000+0  26919-3 0  9995", "line2": "2 29889  99.4770 118.3374 0153957   1.7775 120.1552 14.13526569975085"}}, "geometry": {"type": "Point", "coordinates": [-53.42919530574644, 38.75249097810202]}}, {"type": "Feature", "properties": {"norad_id": 29890, "name": "FENGYUN 1C DEB", "group": "fengyun-1c-debris", "lat": 58.50886730501663, "lon": -40.98407002020439, "alt_km": 808.3715250579444, "timestamp": "2025-12-26T15:29:39.711422+00:00", "meta": {"OBJECT_NAME": "FENGYUN 1C DEB", "OBJECT_ID": "1999-025GL", "EPOCH": "2025-12-25T22:03:32.609088", "MEAN_MOTION": 14.23085727, "ECCENTRICITY": 0.0014313, "INCLINATION": 99.4687, "RA_OF_ASC_NODE": 122.4264, "ARG_OF_PERICENTER": 36.8068, "MEAN_ANOMALY": 323.4088, "EPHEMERIS_TYPE": 0, "CLASSIFICATION_TYPE": "U", "NORAD_CAT_ID": 29890, "ELEMENT_SET_NO": 999, "REV_AT_EPOCH": 97638, "BSTAR": 0.00086577, "MEAN_MOTION_DOT": 1.905e-05, "MEAN_MOTION_DDOT": 0}, "tle": {"line1": "1 29890U 99025GL  25359.91912742  .00001905  00000+0  86577-3 0  9992", "line2": "2 29890  99.4687 122.4264 0014313  36.8068 323.4088 14.23085727976387"}}, "geometry": {"type": "Point", "coordinates": [-40.98407002020439, 58.50886730501663]}}, {"type": "Feature", "properties": {"norad_id": 29891, "name": "FENGYUN 1C DEB", "group": "fengyun-1c-debris", "lat": -27.714928108346466, "lon": 6.761675297458033, "alt_km": 914.9547449776956, "timestamp": "2025-12-26T15:29:39.711433+00:00", "meta": {"OBJECT_NAME": "FENGYUN 1C DEB", "OBJECT_ID": "1999-025GM", "EPOCH": "2025-12-26T00:18:01.035072", "MEAN_MOTION": 14.00017212, "ECCENTRICITY": 0.00610361, "INCLINATION": 98.7277, "RA_OF_ASC_NODE": 1.5289, "ARG_OF_PERICENTER": 223.0244, "MEAN_ANOMALY": 159.3265, "EPHEMERIS_TYPE": 0, "CLASSIFICATION_TYPE": "U", "NORAD_CAT_ID": 29891, "ELEMENT_SET_NO": 999, "REV_AT_EPOCH": 96674, "BSTAR": 0.00055999959, "MEAN_MOTION_DOT": 7.96e-06, "MEAN_MOTION_DDOT": 0}, "tle": {"line1": "1 29891U 99025GM  25360.01251198  .00000796  00000+0  56000-3 0  9992", "line2": "2 29891  98.7277   1.5289 0061036 223.0244 159.3265 14.00017212966740"}}, "geometry": {"type": "Point", "coordinates": [6.761675297458033, -27.714928108346466]}}]}